$$SOE
2460147.500000000, A.D. 2023-Jul-22 00:00:00.0000, 3.394970338953353E+08, -3.329070217912948E+08, 1.765800514351182E+07,
2460154.500000000, A.D. 2023-Jul-29 00:00:00.0000, 3.463821545060932E+08, -3.249193443983967E+08, 1.795585923993705E+07,
2460161.500000000, A.D. 2023-Aug-05 00:00:00.0000, 3.531106026553993E+08, -3.167847027940548E+08, 1.824559193063933E+07,
2460168.500000000, A.D. 2023-Aug-12 00:00:00.0000, 3.596787983174884E+08, -3.085062961027597E+08, 1.852704460846476E+07,
2460175.500000000, A.D. 2023-Aug-19 00:00:00.0000, 3.660832317390161E+08, -3.000874289321705E+08, 1.880006242499878E+07,
2460182.500000000, A.D. 2023-Aug-26 00:00:00.0000, 3.723204672559683E+08, -2.915315096696388E+08, 1.906449447405829E+07,
2460189.500000000, A.D. 2023-Sep-02 00:00:00.0000, 3.783871470485010E+08, -2.828420486784893E+08, 1.932019396761565E+07,
2460196.500000000, A.D. 2023-Sep-09 00:00:00.0000, 3.842799948626593E+08, -2.740226564345130E+08, 1.956701839697784E+07,
2460203.500000000, A.D. 2023-Sep-16 00:00:00.0000, 3.899958198599406E+08, -2.650770416613064E+08, 1.980482965872046E+07,
2460210.500000000, A.D. 2023-Sep-23 00:00:00.0000, 3.955315210037437E+08, -2.560090091793902E+08, 2.003349413046069E+07,
2460217.500000000, A.D. 2023-Sep-30 00:00:00.0000, 4.008840916360896E+08, -2.468224562816242E+08, 2.025288282501124E+07,
2460224.500000000, A.D. 2023-Oct-07 00:00:00.0000, 4.060506218828971E+08, -2.375213681825706E+08, 2.046287179453525E+07,
2460231.500000000, A.D. 2023-Oct-14 00:00:00.0000, 4.110282999174346E+08, -2.281098158591680E+08, 2.066334241822734E+07,
2460238.500000000, A.D. 2023-Oct-21 00:00:00.0000, 4.158144153000566E+08, -2.185919546826839E+08, 2.085418140786013E+07,
2460245.500000000, A.D. 2023-Oct-28 00:00:00.0000, 4.204063629610196E+08, -2.089720215851692E+08, 2.103528084631975E+07,
2460252.500000000, A.D. 2023-Nov-04 00:00:00.0000, 4.248016465680946E+08, -1.992543315353304E+08, 2.120653831073149E+07,
2460259.500000000, A.D. 2023-Nov-11 00:00:00.0000, 4.289978814483083E+08, -1.894432739287704E+08, 2.136785701475301E+07,
2460266.500000000, A.D. 2023-Nov-18 00:00:00.0000, 4.329927972752991E+08, -1.795433089623953E+08, 2.151914594452521E+07,
2460273.500000000, A.D. 2023-Nov-25 00:00:00.0000, 4.367842405875006E+08, -1.695589639764615E+08, 2.166031998332466E+07,
2460280.500000000, A.D. 2023-Dec-02 00:00:00.0000, 4.403701771580870E+08, -1.594948297821521E+08, 2.179130002127834E+07,
2460287.500000000, A.D. 2023-Dec-09 00:00:00.0000, 4.437486942873640E+08, -1.493555570409127E+08, 2.191201303794944E+07,
2460294.500000000, A.D. 2023-Dec-16 00:00:00.0000, 4.469180032978072E+08, -1.391458526904598E+08, 2.202239213203470E+07,
2460301.500000000, A.D. 2023-Dec-23 00:00:00.0000, 4.498764425734611E+08, -1.288704757370465E+08, 2.212237652195598E+07,
2460308.500000000, A.D. 2023-Dec-30 00:00:00.0000, 4.526224797991067E+08, -1.185342313724026E+08, 2.221191172591123E+07,
2460315.500000000, A.D. 2024-Jan-06 00:00:00.0000, 4.551547116233227E+08, -1.081419657859643E+08, 2.229094989095026E+07,
2460322.500000000, A.D. 2024-Jan-13 00:00:00.0000, 4.574718639127304E+08, -9.769856348930915E+07, 2.235944983180160E+07,
2460329.500000000, A.D. 2024-Jan-20 00:00:00.0000, 4.595727938156362E+08, -8.720894407686643E+07, 2.241737691866239E+07,
2460336.500000000, A.D. 2024-Jan-27 00:00:00.0000, 4.614564916030627E+08, -7.667805777971627E+07, 2.246470305299240E+07,
2460343.500000000, A.D. 2024-Feb-03 00:00:00.0000, 4.631220818564367E+08, -6.611088077087624E+07, 2.250140669283171E+07,
2460350.500000000, A.D. 2024-Feb-10 00:00:00.0000, 4.645688242772884E+08, -5.551241052320854E+07, 2.252747287816726E+07,
2460357.500000000, A.D. 2024-Feb-17 00:00:00.0000, 4.657961142561805E+08, -4.488766122207340E+07, 2.254289324408339E+07,
2460364.500000000, A.D. 2024-Feb-24 00:00:00.0000, 4.668034832360085E+08, -3.424165922801259E+07, 2.254766601949247E+07,
2460371.500000000, A.D. 2024-Mar-02 00:00:00.0000, 4.675905988989980E+08, -2.357943863215801E+07, 2.254179600606474E+07,
2460378.500000000, A.D. 2024-Mar-09 00:00:00.0000, 4.681572653167059E+08, -1.290603697764027E+07, 2.252529451947102E+07,
2460385.500000000, A.D. 2024-Mar-16 00:00:00.0000, 4.685034234586648E+08, -2.226490960137313E+06, 2.249817927269955E+07,
2460392.500000000, A.D. 2024-Mar-23 00:00:00.0000, 4.686291519566176E+08, 8.454168992236258E+06, 2.246047430155578E+07,
2460399.500000000, A.D. 2024-Mar-30 00:00:00.0000, 4.685346658866805E+08, 1.913092522428872E+07, 2.241221013620124E+07,
2460406.500000000, A.D. 2024-Apr-06 00:00:00.0000, 4.682203138307262E+08, 2.979877706608383E+07, 2.235342392053585E+07,
2460413.500000000, A.D. 2024-Apr-13 00:00:00.0000, 4.676865767707269E+08, 4.045274357747304E+07, 2.228415922200641E+07,
2460420.500000000, A.D. 2024-Apr-20 00:00:00.0000, 4.669340678658780E+08, 5.108786749185249E+07, 2.220446583786228E+07,
2460427.500000000, A.D. 2024-Apr-27 00:00:00.0000, 4.659635315986177E+08, 6.169921978873226E+07, 2.211439969123350E+07,
2460434.500000000, A.D. 2024-May-04 00:00:00.0000, 4.647758423809612E+08, 7.228190418333863E+07, 2.201402275160344E+07,
2460441.500000000, A.D. 2024-May-11 00:00:00.0000, 4.633720028636351E+08, 8.283106142428932E+07, 2.190340294973527E+07,
2460448.500000000, A.D. 2024-May-18 00:00:00.0000, 4.617531420356283E+08, 9.334187341483602E+07, 2.178261408181271E+07,
2460455.500000000, A.D. 2024-May-25 00:00:00.0000, 4.599205131462107E+08, 1.038095671447158E+08, 2.165173570072109E+07,
2460462.500000000, A.D. 2024-Jun-01 00:00:00.0000, 4.578754915177114E+08, 1.142294183690062E+08, 2.151085298517402E+07,
2460469.500000000, A.D. 2024-Jun-08 00:00:00.0000, 4.556195725039799E+08, 1.245967550042445E+08, 2.136005656300010E+07,
2460476.500000000, A.D. 2024-Jun-15 00:00:00.0000, 4.531543700013289E+08, 1.349069607797509E+08, 2.119944229699734E+07,
2460483.500000000, A.D. 2024-Jun-22 00:00:00.0000, 4.504816145124514E+08, 1.451554803135965E+08, 2.102911122204247E+07,
2460490.500000000, A.D. 2024-Jun-29 00:00:00.0000, 4.476031486495927E+08, 1.553378237889454E+08, 2.084916968013765E+07,
2460497.500000000, A.D. 2024-Jul-06 00:00:00.0000, 4.445209227318350E+08, 1.654495687550400E+08, 2.065972920957985E+07,
2460504.500000000, A.D. 2024-Jul-13 00:00:00.0000, 4.412369924328797E+08, 1.754863618717262E+08, 2.046090624048838E+07,
2460511.500000000, A.D. 2024-Jul-20 00:00:00.0000, 4.377535165002882E+08, 1.854439217428453E+08, 2.025282187304057E+07,
2460518.500000000, A.D. 2024-Jul-27 00:00:00.0000, 4.340727538980991E+08, 1.953180418766153E+08, 2.003560172062521E+07,
2460525.500000000, A.D. 2024-Aug-03 00:00:00.0000, 4.301970606540967E+08, 2.051045933959655E+08, 1.980937576261070E+07,
2460532.500000000, A.D. 2024-Aug-10 00:00:00.0000, 4.261288865858051E+08, 2.147995274927791E+08, 1.957427819143565E+07,
2460539.500000000, A.D. 2024-Aug-17 00:00:00.0000, 4.218707719607820E+08, 2.243988776467862E+08, 1.933044725167823E+07,
2460546.500000000, A.D. 2024-Aug-24 00:00:00.0000, 4.174253441273000E+08, 2.338987615865128E+08, 1.907802506692159E+07,
2460553.500000000, A.D. 2024-Aug-31 00:00:00.0000, 4.127953142394317E+08, 2.432953829310386E+08, 1.881715743896945E+07,
2460560.500000000, A.D. 2024-Sep-07 00:00:00.0000, 4.079834744506308E+08, 2.525850326393622E+08, 1.854799359634714E+07,
2460567.500000000, A.D. 2024-Sep-14 00:00:00.0000, 4.029926956688280E+08, 2.617640912631604E+08, 1.827068596563043E+07,
2460574.500000000, A.D. 2024-Sep-21 00:00:00.0000, 3.978259238501632E+08, 2.708290324162977E+08, 1.798539018547241E+07,
2460581.500000000, A.D. 2024-Sep-28 00:00:00.0000, 3.924861743516648E+08, 2.797764242368439E+08, 1.769226514478408E+07,
2460588.500000000, A.D. 2024-Oct-05 00:00:00.0000, 3.869765280223075E+08, 2.886029288455186E+08, 1.739147270891000E+07,
2460595.500000000, A.D. 2024-Oct-12 00:00:00.0000, 3.813001286787906E+08, 2.973053027814310E+08, 1.708317741042264E+07,
2460602.500000000, A.D. 2024-Oct-19 00:00:00.0000, 3.754601802210045E+08, 3.058803981463473E+08, 1.676754624320906E+07,
2460609.500000000, A.D. 2024-Oct-26 00:00:00.0000, 3.694599433611401E+08, 3.143251636589317E+08, 1.644474849763571E+07,
2460616.500000000, A.D. 2024-Nov-02 00:00:00.0000, 3.633027322299637E+08, 3.226366454736480E+08, 1.611495560135272E+07,
2460623.500000000, A.D. 2024-Nov-09 00:00:00.0000, 3.569919109625747E+08, 3.308119877884247E+08, 1.577834095885128E+07,
2460630.500000000, A.D. 2024-Nov-16 00:00:00.0000, 3.505308902948691E+08, 3.388484332452695E+08, 1.543507978772183E+07,
2460637.500000000, A.D. 2024-Nov-23 00:00:00.0000, 3.439231242227682E+08, 3.467433230784940E+08, 1.508534894357316E+07,
2460644.500000000, A.D. 2024-Nov-30 00:00:00.0000, 3.371721069378028E+08, 3.544940969730876E+08, 1.472932671140863E+07,
2460651.500000000, A.D. 2024-Dec-07 00:00:00.0000, 3.302813704642753E+08, 3.620982930591521E+08, 1.436719255972220E+07,
2460658.500000000, A.D. 2024-Dec-14 00:00:00.0000, 3.232544823147197E+08, 3.695535492703392E+08, 1.399912702071039E+07,
2460665.500000000, A.D. 2024-Dec-21 00:00:00.0000, 3.160950408483727E+08, 3.768576048291711E+08, 1.362531180817926E+07,
2460672.500000000, A.D. 2024-Dec-28 00:00:00.0000, 3.088066703093551E+08, 3.840082988978053E+08, 1.324592975027248E+07,
2460679.500000000, A.D. 2025-Jan-04 00:00:00.0000, 3.013930181472080E+08, 3.910035687747147E+08, 1.286116449318963E+07,
2460686.500000000, A.D. 2025-Jan-11 00:00:00.0000, 2.938577528009783E+08, 3.978414492994957E+08, 1.247120027867022E+07,
2460693.500000000, A.D. 2025-Jan-18 00:00:00.0000, 2.862045610309532E+08, 4.045200725508279E+08, 1.207622180460832E+07,
2460700.500000000, A.D. 2025-Jan-25 00:00:00.0000, 2.784371450430292E+08, 4.110376673684187E+08, 1.167641410817415E+07,
2460707.500000000, A.D. 2025-Feb-01 00:00:00.0000, 2.705592195974339E+08, 4.173925586748264E+08, 1.127196245212403E+07,
2460714.500000000, A.D. 2025-Feb-08 00:00:00.0000, 2.625745091629220E+08, 4.235831666227331E+08, 1.086305221099845E+07,
$$EOE